{
  "type": "FeatureCollection",
  "features": [
    {
      "type": "Feature",
      "properties": {
        "norad_id": 27954,
        "name": "GALAXY 13 (HORIZONS-1)",
        "group": "intelsat",
        "lat": 0.6231845952513236,
        "lon": 129.69016140418998,
        "alt_km": 35789.76261683357,
        "timestamp": "2025-12-02T13:52:16.943011+00:00",
        "meta_object_name": "GALAXY 13 (HORIZONS-1)",
        "meta_object_id": "2003-044A",
        "meta_epoch": "2025-12-02T06:13:23.482848",
        "meta_mean_motion": 1.00272014,
        "meta_eccentricity": 0.00020898,
        "meta_inclination": 0.9085,
        "meta_ra_of_asc_node": 86.5976,
        "meta_arg_of_pericenter": 158.9528,
        "meta_mean_anomaly": 129.1546,
        "meta_ephemeris_type": 0,
        "meta_classification_type": "U",
        "meta_norad_cat_id": 27954,
        "meta_element_set_no": 999,
        "meta_rev_at_epoch": 4459,
        "meta_bstar": 0,
        "meta_mean_motion_dot": 1.53e-06,
        "meta_mean_motion_ddot": 0,
        "tle_line1": "1 27954U 03044A   25336.25929957  .00000153  00000+0  00000+0 0  9992",
        "tle_line2": "2 27954   0.9085  86.5976 0002089 158.9528 129.1546  1.00272014 44596"
      },
      "geometry": {
        "type": "Point",
        "coordinates": [
          129.69016140418998,
          0.6231845952513236
        ]
      }
    },
    {
      "type": "Feature",
      "properties": {
        "norad_id": 28358,
        "name": "INTELSAT 10-02",
        "group": "intelsat",
        "lat": -0.02206961895843198,
        "lon": -81.2647659142638,
        "alt_km": 35780.86787557152,
        "timestamp": "2025-12-02T13:52:16.943023+00:00",
        "meta_object_name": "INTELSAT 10-02",
        "meta_object_id": "2004-022A",
        "meta_epoch": "2025-12-02T05:13:06.758112",
        "meta_mean_motion": 1.002726,
        "meta_eccentricity": 0.00011785,
        "meta_inclination": 0.0378,
        "meta_ra_of_asc_node": 83.9766,
        "meta_arg_of_pericenter": 193.5908,
        "meta_mean_anomaly": 231.0466,
        "meta_ephemeris_type": 0,
        "meta_classification_type": "U",
        "meta_norad_cat_id": 28358,
        "meta_element_set_no": 999,
        "meta_rev_at_epoch": 7858,
        "meta_bstar": 0,
        "meta_mean_motion_dot": 1e-07,
        "meta_mean_motion_ddot": 0,
        "tle_line1": "1 28358U 04022A   25336.21743933  .00000010  00000+0  00000+0 0  9994",
        "tle_line2": "2 28358   0.0378  83.9766 0001178 193.5908 231.0466  1.00272600 78585"
      },
      "geometry": {
        "type": "Point",
        "coordinates": [
          -81.2647659142638,
          -0.02206961895843198
        ]
      }
    },
    {
      "type": "Feature",
      "properties": {
        "norad_id": 28626,
        "name": "XM-3 (RHYTHM)",
        "group": "intelsat",
        "lat": 0.025386511378189768,
        "lon": 82.24726117274011,
        "alt_km": 36159.334604161966,
        "timestamp": "2025-12-02T13:52:16.943035+00:00",
        "meta_object_name": "XM-3 (RHYTHM)",
        "meta_object_id": "2005-008A",
        "meta_epoch": "2025-12-01T16:19:10.718688",
        "meta_mean_motion": 0.98955107,
        "meta_eccentricity": 8.384e-05,
        "meta_inclination": 0.1433,
        "meta_ra_of_asc_node": 80.6256,
        "meta_arg_of_pericenter": 270.4663,
        "meta_mean_anomaly": 131.2697,
        "meta_ephemeris_type": 0,
        "meta_classification_type": "U",
        "meta_norad_cat_id": 28626,
        "meta_element_set_no": 999,
        "meta_rev_at_epoch": 4064,
        "meta_bstar": 0,
        "meta_mean_motion_dot": -2.1e-06,
        "meta_mean_motion_ddot": 0,
        "tle_line1": "1 28626U 05008A   25335.67998517 -.00000210  00000+0  00000+0 0  9999",
        "tle_line2": "2 28626   0.1433  80.6256 0000838 270.4663 131.2697  0.98955107 40648"
      },
      "geometry": {
        "type": "Point",
        "coordinates": [
          82.24726117274011,
          0.025386511378189768
        ]
      }
    },
    {
      "type": "Feature",
      "properties": {
        "norad_id": 28659,
        "name": "DIRECTV 8",
        "group": "intelsat",
        "lat": -0.02325337334513521,
        "lon": 160.64903740916654,
        "alt_km": 35788.14319334603,
        "timestamp": "2025-12-02T13:52:16.943046+00:00",
        "meta_object_name": "DIRECTV 8",
        "meta_object_id": "2005-019A",
        "meta_epoch": "2025-12-02T06:22:15.134016",
        "meta_mean_motion": 1.00271218,
        "meta_eccentricity": 0.0003237,
        "meta_inclination": 0.0128,
        "meta_ra_of_asc_node": 290.6106,
        "meta_arg_of_pericenter": 328.1832,
        "meta_mean_anomaly": 149.1053,
        "meta_ephemeris_type": 0,
        "meta_classification_type": "U",
        "meta_norad_cat_id": 28659,
        "meta_element_set_no": 999,
        "meta_rev_at_epoch": 7509,
        "meta_bstar": 0,
        "meta_mean_motion_dot": 2.2e-07,
        "meta_mean_motion_ddot": 0,
        "tle_line1": "1 28659U 05019A   25336.26545294  .00000022  00000+0  00000+0 0  9993",
        "tle_line2": "2 28659   0.0128 290.6106 0003237 328.1832 149.1053  1.00271218 75095"
      },
      "geometry": {
        "type": "Point",
        "coordinates": [
          160.64903740916654,
          -0.02325337334513521
        ]
      }
    },
    {
      "type": "Feature",
      "properties": {
        "norad_id": 28702,
        "name": "GALAXY 28 (G-28)",
        "group": "intelsat",
        "lat": 2.6111383350431043,
        "lon": -168.99528289714863,
        "alt_km": 35782.51577322658,
        "timestamp": "2025-12-02T13:52:16.943058+00:00",
        "meta_object_name": "GALAXY 28 (G-28)",
        "meta_object_id": "2005-022A",
        "meta_epoch": "2025-12-02T06:30:51.808608",
        "meta_mean_motion": 1.00270629,
        "meta_eccentricity": 0.00026644,
        "meta_inclination": 2.7919,
        "meta_ra_of_asc_node": 81.4004,
        "meta_arg_of_pericenter": 181.283,
        "meta_mean_anomaly": 177.6966,
        "meta_ephemeris_type": 0,
        "meta_classification_type": "U",
        "meta_norad_cat_id": 28702,
        "meta_element_set_no": 999,
        "meta_rev_at_epoch": 4999,
        "meta_bstar": 0,
        "meta_mean_motion_dot": -1.67e-06,
        "meta_mean_motion_ddot": 0,
        "tle_line1": "1 28702U 05022A   25336.27143297 -.00000167  00000+0  00000+0 0  9995",
        "tle_line2": "2 28702   2.7919  81.4004 0002664 181.2830 177.6966  1.00270629 49997"
      },
      "geometry": {
        "type": "Point",
        "coordinates": [
          -168.99528289714863,
          2.6111383350431043
        ]
      }
    },
    {
      "type": "Feature",
      "properties": {
        "norad_id": 29236,
        "name": "GALAXY 16 (G-16)",
        "group": "intelsat",
        "lat": -0.025916788068202853,
        "lon": -179.31466979600324,
        "alt_km": 35782.67222905123,
        "timestamp": "2025-12-02T13:52:16.943070+00:00",
        "meta_object_name": "GALAXY 16 (G-16)",
        "meta_object_id": "2006-023A",
        "meta_epoch": "2025-12-02T06:27:52.095744",
        "meta_mean_motion": 1.00270275,
        "meta_eccentricity": 0.00028497,
        "meta_inclination": 0.0259,
        "meta_ra_of_asc_node": 222.8846,
        "meta_arg_of_pericenter": 29.2853,
        "meta_mean_anomaly": 177.1686,
        "meta_ephemeris_type": 0,
        "meta_classification_type": "U",
        "meta_norad_cat_id": 29236,
        "meta_element_set_no": 999,
        "meta_rev_at_epoch": 7099,
        "meta_bstar": 0,
        "meta_mean_motion_dot": -1.06e-06,
        "meta_mean_motion_ddot": 0,
        "tle_line1": "1 29236U 06023A   25336.26935296 -.00000106  00000+0  00000+0 0  9990",
        "tle_line2": "2 29236   0.0259 222.8846 0002849  29.2853 177.1686  1.00270275 70999"
      },
      "geometry": {
        "type": "Point",
        "coordinates": [
          -179.31466979600324,
          -0.025916788068202853
        ]
      }
    },
    {
      "type": "Feature",
      "properties": {
        "norad_id": 29494,
        "name": "DIRECTV 9S",
        "group": "intelsat",
        "lat": 1.8870294027836376,
        "lon": 178.49356504099293,
        "alt_km": 35781.81007715249,
        "timestamp": "2025-12-02T13:52:16.943082+00:00",
        "meta_object_name": "DIRECTV 9S",
        "meta_object_id": "2006-043A",
        "meta_epoch": "2025-12-02T06:27:14.656032",
        "meta_mean_motion": 1.00270686,
        "meta_eccentricity": 0.00031513,
        "meta_inclination": 1.9108,
        "meta_ra_of_asc_node": 83.3228,
        "meta_arg_of_pericenter": 166.2295,
        "meta_mean_anomaly": 177.4346,
        "meta_ephemeris_type": 0,
        "meta_classification_type": "U",
        "meta_norad_cat_id": 29494,
        "meta_element_set_no": 999,
        "meta_rev_at_epoch": 4940,
        "meta_bstar": 0,
        "meta_mean_motion_dot": -9.3e-07,
        "meta_mean_motion_ddot": 0,
        "tle_line1": "1 29494U 06043A   25336.26891963 -.00000093  00000+0  00000+0 0  9995",
        "tle_line2": "2 29494   1.9108  83.3228 0003151 166.2295 177.4346  1.00270686 49405"
      },
      "geometry": {
        "type": "Point",
        "coordinates": [
          178.49356504099293,
          1.8870294027836376
        ]
      }
    }
  ]
}